{
  "type": "FeatureCollection",
  "features": [
    {
      "type": "Feature",
      "properties": {
        "norad_id": 26766,
        "name": "INTELSAT 10 (IS-10)",
        "group": "intelsat",
        "lat": 1.631244537285207,
        "lon": -129.76120327888728,
        "alt_km": 36102.40093497725,
        "timestamp": "2025-12-03T22:42:32.324154+00:00",
        "meta_object_name": "INTELSAT 10 (IS-10)",
        "meta_object_id": "2001-019A",
        "meta_epoch": "2025-12-03T11:53:38.524992",
        "meta_mean_motion": 0.99078102,
        "meta_eccentricity": 0.0007771,
        "meta_inclination": 8.6063,
        "meta_ra_of_asc_node": 61.2471,
        "meta_arg_of_pericenter": 218.7876,
        "meta_mean_anomaly": 149.4282,
        "meta_ephemeris_type": 0,
        "meta_classification_type": "U",
        "meta_norad_cat_id": 26766,
        "meta_element_set_no": 999,
        "meta_rev_at_epoch": 4364,
        "meta_bstar": 0,
        "meta_mean_motion_dot": -1.56e-06,
        "meta_mean_motion_ddot": 0,
        "tle_line1": "1 26766U 01019A   25337.49558478 -.00000156  00000+0  00000+0 0  9999",
        "tle_line2": "2 26766   8.6063  61.2471 0007771 218.7876 149.4282  0.99078102 43647"
      },
      "geometry": {
        "type": "Point",
        "coordinates": [
          -129.76120327888728,
          1.631244537285207
        ]
      }
    },
    {
      "type": "Feature",
      "properties": {
        "norad_id": 26900,
        "name": "INTELSAT 902 (IS-902)",
        "group": "intelsat",
        "lat": -5.290693849159063,
        "lon": 3.646439974191053,
        "alt_km": 35794.91027833446,
        "timestamp": "2025-12-03T22:42:32.324178+00:00",
        "meta_object_name": "INTELSAT 902 (IS-902)",
        "meta_object_id": "2001-039A",
        "meta_epoch": "2025-12-01T16:59:59.311968",
        "meta_mean_motion": 1.00270327,
        "meta_eccentricity": 0.00043097,
        "meta_inclination": 5.6187,
        "meta_ra_of_asc_node": 74.2002,
        "meta_arg_of_pericenter": 175.119,
        "meta_mean_anomaly": 26.3816,
        "meta_ephemeris_type": 0,
        "meta_classification_type": "U",
        "meta_norad_cat_id": 26900,
        "meta_element_set_no": 999,
        "meta_rev_at_epoch": 8871,
        "meta_bstar": 0,
        "meta_mean_motion_dot": -2.63e-06,
        "meta_mean_motion_ddot": 0,
        "tle_line1": "1 26900U 01039A   25335.70832537 -.00000263  00000+0  00000+0 0  9993",
        "tle_line2": "2 26900   5.6187  74.2002 0004309 175.1190  26.3816  1.00270327 88713"
      },
      "geometry": {
        "type": "Point",
        "coordinates": [
          3.646439974191053,
          -5.290693849159063
        ]
      }
    },
    {
      "type": "Feature",
      "properties": {
        "norad_id": 27380,
        "name": "INTELSAT 904 (IS-904)",
        "group": "intelsat",
        "lat": -4.856903804691494,
        "lon": 22.342649288399265,
        "alt_km": 35789.763791756144,
        "timestamp": "2025-12-03T22:42:32.324192+00:00",
        "meta_object_name": "INTELSAT 904 (IS-904)",
        "meta_object_id": "2002-007A",
        "meta_epoch": "2025-12-03T03:19:57.879840",
        "meta_mean_motion": 1.00269372,
        "meta_eccentricity": 0.00015814,
        "meta_inclination": 6.4293,
        "meta_ra_of_asc_node": 71.5412,
        "meta_arg_of_pericenter": 200.7188,
        "meta_mean_anomaly": 178.4698,
        "meta_ephemeris_type": 0,
        "meta_classification_type": "U",
        "meta_norad_cat_id": 27380,
        "meta_element_set_no": 999,
        "meta_rev_at_epoch": 4980,
        "meta_bstar": 0,
        "meta_mean_motion_dot": -2.1e-06,
        "meta_mean_motion_ddot": 0,
        "tle_line1": "1 27380U 02007A   25337.13886435 -.00000210  00000+0  00000+0 0  9999",
        "tle_line2": "2 27380   6.4293  71.5412 0001581 200.7188 178.4698  1.00269372 49801"
      },
      "geometry": {
        "type": "Point",
        "coordinates": [
          22.342649288399265,
          -4.856903804691494
        ]
      }
    },
    {
      "type": "Feature",
      "properties": {
        "norad_id": 27426,
        "name": "DIRECTV 5 (TEMPO 1)",
        "group": "intelsat",
        "lat": -3.1484771100938316,
        "lon": -56.535006362861544,
        "alt_km": 35773.80133397747,
        "timestamp": "2025-12-03T22:42:32.324205+00:00",
        "meta_object_name": "DIRECTV 5 (TEMPO 1)",
        "meta_object_id": "2002-023A",
        "meta_epoch": "2025-12-03T09:48:28.408032",
        "meta_mean_motion": 1.00271174,
        "meta_eccentricity": 0.0003776,
        "meta_inclination": 4.3765,
        "meta_ra_of_asc_node": 77.7618,
        "meta_arg_of_pericenter": 189.4718,
        "meta_mean_anomaly": 202.2592,
        "meta_ephemeris_type": 0,
        "meta_classification_type": "U",
        "meta_norad_cat_id": 27426,
        "meta_element_set_no": 999,
        "meta_rev_at_epoch": 8616,
        "meta_bstar": 0,
        "meta_mean_motion_dot": -4e-07,
        "meta_mean_motion_ddot": 0,
        "tle_line1": "1 27426U 02023A   25337.40866213 -.00000040  00000+0  00000+0 0  9991",
        "tle_line2": "2 27426   4.3765  77.7618 0003776 189.4718 202.2592  1.00271174 86161"
      },
      "geometry": {
        "type": "Point",
        "coordinates": [
          -56.535006362861544,
          -3.1484771100938316
        ]
      }
    },
    {
      "type": "Feature",
      "properties": {
        "norad_id": 27438,
        "name": "INTELSAT 905 (IS-905)",
        "group": "intelsat",
        "lat": -2.5968262911176327,
        "lon": -83.6528238928651,
        "alt_km": 35773.16315174327,
        "timestamp": "2025-12-03T22:42:32.324217+00:00",
        "meta_object_name": "INTELSAT 905 (IS-905)",
        "meta_object_id": "2002-027A",
        "meta_epoch": "2025-12-03T09:40:44.148864",
        "meta_mean_motion": 1.00273288,
        "meta_eccentricity": 0.000313,
        "meta_inclination": 6.2606,
        "meta_ra_of_asc_node": 72.1621,
        "meta_arg_of_pericenter": 189.1417,
        "meta_mean_anomaly": 179.1858,
        "meta_ephemeris_type": 0,
        "meta_classification_type": "U",
        "meta_norad_cat_id": 27438,
        "meta_element_set_no": 999,
        "meta_rev_at_epoch": 4940,
        "meta_bstar": 0,
        "meta_mean_motion_dot": 1.09e-06,
        "meta_mean_motion_ddot": 0,
        "tle_line1": "1 27438U 02027A   25337.40328876  .00000109  00000+0  00000+0 0  9991",
        "tle_line2": "2 27438   6.2606  72.1621 0003130 189.1417 179.1858  1.00273288 49400"
      },
      "geometry": {
        "type": "Point",
        "coordinates": [
          -83.6528238928651,
          -2.5968262911176327
        ]
      }
    },
    {
      "type": "Feature",
      "properties": {
        "norad_id": 27445,
        "name": "GALAXY 3C (G-3C)",
        "group": "intelsat",
        "lat": -2.7574433376955008,
        "lon": -41.24618504856954,
        "alt_km": 35791.03820991543,
        "timestamp": "2025-12-03T22:42:32.324228+00:00",
        "meta_object_name": "GALAXY 3C (G-3C)",
        "meta_object_id": "2002-030A",
        "meta_epoch": "2025-12-03T09:52:50.491200",
        "meta_mean_motion": 1.00270115,
        "meta_eccentricity": 0.0001284,
        "meta_inclination": 3.2391,
        "meta_ra_of_asc_node": 80.6023,
        "meta_arg_of_pericenter": 98.3929,
        "meta_mean_anomaly": 306.8593,
        "meta_ephemeris_type": 0,
        "meta_classification_type": "U",
        "meta_norad_cat_id": 27445,
        "meta_element_set_no": 999,
        "meta_rev_at_epoch": 4453,
        "meta_bstar": 0,
        "meta_mean_motion_dot": -1.35e-06,
        "meta_mean_motion_ddot": 0,
        "tle_line1": "1 27445U 02030A   25337.41169550 -.00000135  00000+0  00000+0 0  9996",
        "tle_line2": "2 27445   3.2391  80.6023 0001284  98.3929 306.8593  1.00270115 44533"
      },
      "geometry": {
        "type": "Point",
        "coordinates": [
          -41.24618504856954,
          -2.7574433376955008
        ]
      }
    },
    {
      "type": "Feature",
      "properties": {
        "norad_id": 27513,
        "name": "INTELSAT 906 (IS-906)",
        "group": "intelsat",
        "lat": 3.591468243314128,
        "lon": 117.62794807820197,
        "alt_km": 35807.601066315,
        "timestamp": "2025-12-03T22:42:32.324240+00:00",
        "meta_object_name": "INTELSAT 906 (IS-906)",
        "meta_object_id": "2002-041A",
        "meta_epoch": "2025-12-03T08:55:25.991040",
        "meta_mean_motion": 1.00273124,
        "meta_eccentricity": 0.0006118,
        "meta_inclination": 5.3053,
        "meta_ra_of_asc_node": 75.3426,
        "meta_arg_of_pericenter": 192.3717,
        "meta_mean_anomaly": 2.7424,
        "meta_ephemeris_type": 0,
        "meta_classification_type": "U",
        "meta_norad_cat_id": 27513,
        "meta_element_set_no": 999,
        "meta_rev_at_epoch": 8506,
        "meta_bstar": 0,
        "meta_mean_motion_dot": 2.9e-07,
        "meta_mean_motion_ddot": 0,
        "tle_line1": "1 27513U 02041A   25337.37182860  .00000029  00000+0  00000+0 0  9999",
        "tle_line2": "2 27513   5.3053  75.3426 0006118 192.3717   2.7424  1.00273124 85067"
      },
      "geometry": {
        "type": "Point",
        "coordinates": [
          117.62794807820197,
          3.591468243314128
        ]
      }
    }
  ]
}